[{"OBJECT_NAME":"STARLINK-35056","OBJECT_ID":"2025-247B","EPOCH":"2026-03-09T14:51:13.125888","MEAN_MOTION":15.30195557,"ECCENTRICITY":0.0001107,"INCLINATION":53.1582,"RA_OF_ASC_NODE":191.717,"ARG_OF_PERICENTER":83.7759,"MEAN_ANOMALY":276.3368,"EPHEMERIS_TYPE":0,"CLASSIFICATION_TYPE":"U","NORAD_CAT_ID":66266,"ELEMENT_SET_NO":999,"REV_AT_EPOCH":2102,"BSTAR":0.0012443,"MEAN_MOTION_DOT":0.00036669,"MEAN_MOTION_DDOT":0},{"OBJECT_NAME":"GLOBAL-34","OBJECT_ID":"2026-043A","EPOCH":"2026-03-09T11:23:30.999840","MEAN_MOTION":15.31488019,"ECCENTRICITY":0.00068849,"INCLINATION":42.0215,"RA_OF_ASC_NODE":76.7399,"ARG_OF_PERICENTER":289.2632,"MEAN_ANOMALY":70.746,"EPHEMERIS_TYPE":0,"CLASSIFICATION_TYPE":"U","NORAD_CAT_ID":68098,"ELEMENT_SET_NO":999,"REV_AT_EPOCH":53,"BSTAR":0.00045822046,"MEAN_MOTION_DOT":0.00014018,"MEAN_MOTION_DDOT":0}]
